[{"OBJECT_NAME":"STARLINK-6357","OBJECT_ID":"2023-078S","EPOCH":"2026-03-09T23:18:07.793856","MEAN_MOTION":14.98327229,"ECCENTRICITY":0.00028075,"INCLINATION":70.0004,"RA_OF_ASC_NODE":323.8294,"ARG_OF_PERICENTER":259.551,"MEAN_ANOMALY":100.5333,"EPHEMERIS_TYPE":0,"CLASSIFICATION_TYPE":"U","NORAD_CAT_ID":56783,"ELEMENT_SET_NO":999,"REV_AT_EPOCH":15321,"BSTAR":-4.3098428e-5,"MEAN_MOTION_DOT":-6.07e-6,"MEAN_MOTION_DDOT":0},{"OBJECT_NAME":"PSLV DEB","OBJECT_ID":"2001-049BU","EPOCH":"2026-03-09T17:49:30.118080","MEAN_MOTION":14.92717498,"ECCENTRICITY":0.00287316,"INCLINATION":98.0611,"RA_OF_ASC_NODE":133.044,"ARG_OF_PERICENTER":17.6514,"MEAN_ANOMALY":97.6538,"EPHEMERIS_TYPE":0,"CLASSIFICATION_TYPE":"U","NORAD_CAT_ID":27124,"ELEMENT_SET_NO":999,"REV_AT_EPOCH":30489,"BSTAR":0.00040608061,"MEAN_MOTION_DOT":4.163e-5,"MEAN_MOTION_DDOT":0}]
